ONEWEB-0228             
1 48780U 21045P   24015.59487801  .00000115  00000+0  27186-3 0  9996
2 48780  87.8971  75.0718 0001894 104.5631 255.5710 13.15550459128159
